[{"OBJECT_NAME":"CONTINUUM-1","OBJECT_ID":"2023-001AN","EPOCH":"2026-03-09T23:17:35.458656","MEAN_MOTION":15.27981258,"ECCENTRICITY":0.00109493,"INCLINATION":97.3456,"RA_OF_ASC_NODE":133.3964,"ARG_OF_PERICENTER":60.1976,"MEAN_ANOMALY":300.0351,"EPHEMERIS_TYPE":0,"CLASSIFICATION_TYPE":"U","NORAD_CAT_ID":55045,"ELEMENT_SET_NO":999,"REV_AT_EPOCH":17709,"BSTAR":0.00052859897,"MEAN_MOTION_DOT":0.00014395,"MEAN_MOTION_DDOT":0},{"OBJECT_NAME":"STARLINK-35637","OBJECT_ID":"2025-237S","EPOCH":"2026-03-09T21:51:38.100096","MEAN_MOTION":15.30214613,"ECCENTRICITY":0.00021241,"INCLINATION":53.1607,"RA_OF_ASC_NODE":38.6517,"ARG_OF_PERICENTER":100.0193,"MEAN_ANOMALY":260.1047,"EPHEMERIS_TYPE":0,"CLASSIFICATION_TYPE":"U","NORAD_CAT_ID":66130,"ELEMENT_SET_NO":999,"REV_AT_EPOCH":2264,"BSTAR":0.00065822662,"MEAN_MOTION_DOT":0.00019195,"MEAN_MOTION_DDOT":0}]
